[{"OBJECT_NAME":"COSMOS 2588","OBJECT_ID":"2025-109A","EPOCH":"2026-03-09T19:28:59.107008","MEAN_MOTION":15.29122656,"ECCENTRICITY":0.0005019,"INCLINATION":72.9704,"RA_OF_ASC_NODE":73.5401,"ARG_OF_PERICENTER":308.678,"MEAN_ANOMALY":51.3966,"EPHEMERIS_TYPE":0,"CLASSIFICATION_TYPE":"U","NORAD_CAT_ID":64095,"ELEMENT_SET_NO":999,"REV_AT_EPOCH":4442,"BSTAR":0.00032611,"MEAN_MOTION_DOT":9.169e-5,"MEAN_MOTION_DDOT":0},{"OBJECT_NAME":"STARLINK-36058","OBJECT_ID":"2025-270D","EPOCH":"2026-03-09T00:36:56.109888","MEAN_MOTION":15.27622806,"ECCENTRICITY":0.0002099,"INCLINATION":43.0067,"RA_OF_ASC_NODE":59.9879,"ARG_OF_PERICENTER":168.5594,"MEAN_ANOMALY":191.5306,"EPHEMERIS_TYPE":0,"CLASSIFICATION_TYPE":"U","NORAD_CAT_ID":66591,"ELEMENT_SET_NO":999,"REV_AT_EPOCH":1760,"BSTAR":0.0012509606,"MEAN_MOTION_DOT":0.00034368,"MEAN_MOTION_DDOT":0}]
