COSMOS 2588             
1 64095U 25109A   26068.81179522  .00009169  00000+0  32611-3 0  9998
2 64095  72.9704  73.5401 0005019 308.6780  51.3966 15.29122656 44425
STARLINK-36058          
1 66591U 25270D   26068.02564942  .00034368  00000+0  12510-2 0  9991
2 66591  43.0067  59.9879 0002099 168.5594 191.5306 15.27622806 17602
